[{"OBJECT_NAME":"STARLINK-3914","OBJECT_ID":"2022-049AR","EPOCH":"2026-03-09T05:33:37.799136","MEAN_MOTION":15.08836745,"ECCENTRICITY":0.00014321,"INCLINATION":53.2182,"RA_OF_ASC_NODE":51.1733,"ARG_OF_PERICENTER":93.4869,"MEAN_ANOMALY":266.6287,"EPHEMERIS_TYPE":0,"CLASSIFICATION_TYPE":"U","NORAD_CAT_ID":52490,"ELEMENT_SET_NO":999,"REV_AT_EPOCH":21232,"BSTAR":1.6192693e-5,"MEAN_MOTION_DOT":-3.0e-7,"MEAN_MOTION_DDOT":0},{"OBJECT_NAME":"NOAA 17 DEB","OBJECT_ID":"2002-032CE","EPOCH":"2026-03-09T04:37:56.707680","MEAN_MOTION":15.14538728,"ECCENTRICITY":0.00195132,"INCLINATION":98.8443,"RA_OF_ASC_NODE":158.3366,"ARG_OF_PERICENTER":246.7141,"MEAN_ANOMALY":113.2034,"EPHEMERIS_TYPE":0,"CLASSIFICATION_TYPE":"U","NORAD_CAT_ID":48745,"ELEMENT_SET_NO":999,"REV_AT_EPOCH":26329,"BSTAR":0.0059143418,"MEAN_MOTION_DOT":0.00111029,"MEAN_MOTION_DDOT":0}]
